SAR-LUPE 2              
1 31797U 07030A   26188.85451196  .00006772  00000+0  11067-3 0  9990
2 31797  98.1051 295.9015 0003659 210.3447 149.7593 15.52951494 60142
SAPPHIRE                
1 39088U 13009C   26188.79745144  .00000078  00000+0  42275-4 0  9995
2 39088  98.4271   7.7647 0011112 181.4992 178.6162 14.35246148699533
PRAETORIAN SDA_602      
1 65565U 25203A   26188.77149611  .00000081  00000+0  62525-4 0  9992
2 65565  81.3036 351.7075 0006860 134.8426 225.3289 13.83887621 41548
PRAETORIAN SDA_603      
1 65566U 25203B   26188.80017751  .00000156  00000+0  12947-3 0  9991
2 65566  81.3042 351.6030 0010515 132.9007 227.3034 13.83961849 41558
PRAETORIAN SDA_604      
1 65567U 25203C   26188.39881106  .00000071  00000+0  53902-4 0  9992
2 65567  81.3058 352.4181 0006316 139.2743 220.8887 13.83049700 41471
PRAETORIAN SDA_605      
1 65568U 25203D   26188.79335750  .00000064  00000+0  47508-4 0  9993
2 65568  81.3023 351.6984 0009133 131.1745 229.0200 13.83199693 41544
PRAETORIAN SDA_606      
1 65569U 25203E   26188.77853207  .00000067  00000+0  50336-4 0  9990
2 65569  81.3060 351.9475 0006961 133.1968 226.9770 13.83199709 41534
PRAETORIAN SDA_607      
1 65570U 25203F   26187.90420413  .00000144  00000+0  11951-3 0  9990
2 65570  81.3044 352.3844 0009734 134.7396 225.4555 13.83758206 41433
PRAETORIAN SDA_608      
1 65571U 25203G   26188.75473227  .00000069  00000+0  51139-4 0  9995
2 65571  81.3013 351.7643 0006829 137.5373 222.6313 13.83818970 41535
PRAETORIAN SDA_609      
1 65572U 25203H   26188.75381553  .00000166  00000+0  13787-3 0  9990
2 65572  81.3021 351.7447 0007905 133.4493 226.7322 13.84216617 41548
PRAETORIAN SDA_610      
1 65573U 25203J   26188.44597577  .00000044  00000+0  28695-4 0  9992
2 65573  81.3013 352.0099 0007591 137.6923 222.4821 13.83769264 41493
PRAETORIAN SDA_611      
1 65574U 25203K   26188.45348706  .00000114  00000+0  92535-4 0  9994
2 65574  81.3021 352.1829 0006411 141.5087 218.6527 13.83311071 41488
PRAETORIAN SDA_612      
1 65575U 25203L   26188.77900986  .00000097  00000+0  74926-4 0  9998
2 65575  81.3034 351.4174 0010129 133.0254 227.1754 13.85040010 41561
PRAETORIAN SDA_613      
1 65576U 25203M   26188.75762999  .00000072  00000+0  55674-4 0  9999
2 65576  81.3005 351.9144 0006566 131.9880 228.1836 13.82767256 41527
PRAETORIAN SDA_614      
1 65577U 25203N   26188.77207537  .00000001  00000+0 -10105-4 0  9997
2 65577  81.3011 351.5068 0007997 130.9967 229.1883 13.84777996 41561
PRAETORIAN SDA_615      
1 65578U 25203P   26188.75402975  .00000179  00000+0  14898-3 0  9996
2 65578  81.3030 351.5002 0009936 131.5603 228.6407 13.84438599 41558
PRAETORIAN SDA_616      
1 65579U 25203Q   26187.94698213  .00000172  00000+0  14623-3 0  9998
2 65579  81.3068 352.8098 0006205 141.3083 218.8518 13.83270525 41417
PRAETORIAN SDA_617      
1 65580U 25203R   26187.89793508  .00000055  00000+0  39283-4 0  9997
2 65580  81.3042 352.6844 0008246 133.3059 226.8786 13.83151490 41414
PRAETORIAN SDA_618      
1 65581U 25203S   26188.43110405  .00000100  00000+0  79154-4 0  9990
2 65581  81.3026 351.7291 0010632 136.0247 224.1757 13.84225388 41513
PRAETORIAN SDA_619      
1 65582U 25203T   26187.89773026  .00000182  00000+0  15346-3 0  9996
2 65582  81.3057 352.5447 0009084 134.6911 225.4987 13.83805775 42053
PRAETORIAN SDA_620      
1 65583U 25203U   26188.79732021  .00000132  00000+0  10933-3 0  9999
2 65583  81.3035 351.7381 0008519 129.4611 230.7300 13.83304245 41546
PRAETORIAN SDA_621      
1 65584U 25203V   26188.40568399  .00000085  00000+0  66030-4 0  9990
2 65584  81.3027 352.0081 0008320 127.3400 232.8516 13.83803578 41491
PRAETORIAN SDA_601      
1 65585U 25203W   26188.45790663 -.00000397  00000+0 -37304-3 0  9996
2 65585  81.3051 352.2799 0006286 142.9490 217.2101 13.83169397 41488
VICTUS HAZE PUMA        
1 69646U 26142A   26188.87616196  .00003202  00000+0  14724-3 0  9992
2 69646  97.4475  86.2642 0025211 293.2248  66.6333 15.20813156  2818
