OBJECT_NAME,OBJECT_ID,EPOCH,MEAN_MOTION,ECCENTRICITY,INCLINATION,RA_OF_ASC_NODE,ARG_OF_PERICENTER,MEAN_ANOMALY,EPHEMERIS_TYPE,CLASSIFICATION_TYPE,NORAD_CAT_ID,ELEMENT_SET_NO,REV_AT_EPOCH,BSTAR,MEAN_MOTION_DOT,MEAN_MOTION_DDOT
SAR-LUPE 2,2007-030A,2026-07-07T20:30:29.833344,15.52951494,.0003659,98.1051,295.9015,210.3447,149.7593,0,U,31797,999,6014,.11067E-3,.6772E-4,0
SAPPHIRE,2013-009C,2026-07-07T19:08:19.804416,14.35246148,.0011112,98.4271,7.7647,181.4992,178.6162,0,U,39088,999,69953,.42275E-4,.78E-6,0
PRAETORIAN SDA_602,2025-203A,2026-07-07T18:30:57.263904,13.83887621,.000686,81.3036,351.7075,134.8426,225.3289,0,U,65565,999,4154,.62525E-4,.81E-6,0
PRAETORIAN SDA_603,2025-203B,2026-07-07T19:12:15.336864,13.83961849,.0010515,81.3042,351.6030,132.9007,227.3034,0,U,65566,999,4155,.12947E-3,.156E-5,0
PRAETORIAN SDA_604,2025-203C,2026-07-07T09:34:17.275584,13.83049700,.00063163,81.3058,352.4181,139.2743,220.8887,0,U,65567,999,4147,.53902405E-4,.71E-6,0
PRAETORIAN SDA_605,2025-203D,2026-07-07T19:02:26.088000,13.83199693,.0009133,81.3023,351.6984,131.1745,229.0200,0,U,65568,999,4154,.47508E-4,.64E-6,0
PRAETORIAN SDA_606,2025-203E,2026-07-07T18:41:05.170848,13.83199709,.0006961,81.3060,351.9475,133.1968,226.9770,0,U,65569,999,4153,.50336E-4,.67E-6,0
PRAETORIAN SDA_607,2025-203F,2026-07-06T21:42:03.236832,13.83758206,.00097341,81.3044,352.3844,134.7396,225.4555,0,U,65570,999,4143,.11950814E-3,.144E-5,0
PRAETORIAN SDA_608,2025-203G,2026-07-07T18:06:48.868128,13.83818970,.0006829,81.3013,351.7643,137.5373,222.6313,0,U,65571,999,4153,.51139E-4,.69E-6,0
PRAETORIAN SDA_609,2025-203H,2026-07-07T18:05:29.661792,13.84216617,.0007905,81.3021,351.7447,133.4493,226.7322,0,U,65572,999,4154,.13787E-3,.166E-5,0
PRAETORIAN SDA_610,2025-203J,2026-07-07T10:42:12.306528,13.83769264,.00075912,81.3013,352.0099,137.6923,222.4821,0,U,65573,999,4149,.28694851E-4,.44E-6,0
PRAETORIAN SDA_611,2025-203K,2026-07-07T10:53:01.281984,13.83311071,.00064113,81.3021,352.1829,141.5087,218.6527,0,U,65574,999,4148,.9253502E-4,.114E-5,0
PRAETORIAN SDA_612,2025-203L,2026-07-07T18:41:46.451904,13.85040010,.0010129,81.3034,351.4174,133.0254,227.1754,0,U,65575,999,4156,.74926E-4,.97E-6,0
PRAETORIAN SDA_613,2025-203M,2026-07-07T18:10:59.231136,13.82767256,.0006566,81.3005,351.9144,131.9880,228.1836,0,U,65576,999,4152,.55674E-4,.72E-6,0
PRAETORIAN SDA_614,2025-203N,2026-07-07T18:31:47.311968,13.84777996,.0007997,81.3011,351.5068,130.9967,229.1883,0,U,65577,999,4156,-.10105E-4,.1E-7,0
PRAETORIAN SDA_615,2025-203P,2026-07-07T18:05:48.170400,13.84438599,.0009936,81.3030,351.5002,131.5603,228.6407,0,U,65578,999,4155,.14898E-3,.179E-5,0
PRAETORIAN SDA_616,2025-203Q,2026-07-06T22:43:39.256032,13.83270525,.00062057,81.3068,352.8098,141.3083,218.8518,0,U,65579,999,4141,.14623056E-3,.172E-5,0
PRAETORIAN SDA_617,2025-203R,2026-07-06T21:33:01.590912,13.83151490,.00082464,81.3042,352.6844,133.3059,226.8786,0,U,65580,999,4141,.39282641E-4,.55E-6,0
PRAETORIAN SDA_618,2025-203S,2026-07-07T10:20:47.389920,13.84225388,.00106323,81.3026,351.7291,136.0247,224.1757,0,U,65581,999,4151,.79153943E-4,.1E-5,0
PRAETORIAN SDA_619,2025-203T,2026-07-06T21:32:43.894464,13.83805775,.00090841,81.3057,352.5447,134.6911,225.4987,0,U,65582,999,4205,.15346334E-3,.182E-5,0
PRAETORIAN SDA_620,2025-203U,2026-07-07T19:08:08.466144,13.83304245,.0008519,81.3035,351.7381,129.4611,230.7300,0,U,65583,999,4154,.10933E-3,.132E-5,0
PRAETORIAN SDA_621,2025-203V,2026-07-07T09:44:11.096736,13.83803578,.00083203,81.3027,352.0081,127.3400,232.8516,0,U,65584,999,4149,.66030364E-4,.85E-6,0
PRAETORIAN SDA_601,2025-203W,2026-07-07T10:59:23.132832,13.83169397,.00062869,81.3051,352.2799,142.9490,217.2101,0,U,65585,999,4148,-.37303621E-3,-.397E-5,0
VICTUS HAZE PUMA,2026-142A,2026-07-07T21:01:40.393344,15.20813156,.0025211,97.4475,86.2642,293.2248,66.6333,0,U,69646,999,281,.14724E-3,.3202E-4,0
